FLOCK 4H-34             
1 66737U 25276BZ  25362.48512150  .00014878  00000+0  72919-3 0  9993
2 66737  97.4434  74.0188 0002942 153.1831 206.9555 15.18233271  3760
FLOCK 4H-35             
1 66738U 25276CA  25362.21952071  .00014502  00000+0  70907-3 0  9994
2 66738  97.4398  73.7465 0002728 137.9275 222.2169 15.18322186  3764
FLOCK 4H-36             
1 66739U 25276CB  25362.42219052  .00013719  00000+0  67576-3 0  9990
2 66739  97.4444  73.9542 0002800 167.3794 192.7511 15.18076042  4501
TRANSPORTER-15CC        
1 66740U 25276CC  25362.49389403  .00015008  00000+0  74450-3 0  9999
2 66740  97.4405  73.9998 0002487 210.7719 149.3370 15.17809427  4518
TRANSPORTER-15CD        
1 66741U 25276CD  25362.42932720  .00007752  00000+0  38796-3 0  9999
2 66741  97.4403  73.9245 0001403 199.1395 160.9786 15.17681228  4505
TRANSPORTER-15CE        
1 66742U 25276CE  25362.42749484  .00009493  00000+0  47305-3 0  9993
2 66742  97.4397  73.9243 0002156 171.9656 188.1613 15.17767541  4504
TRANSPORTER-15CF        
1 66743U 25276CF  25362.49764544  .00009590  00000+0  48015-3 0  9992
2 66743  97.4398  73.9832 0001017 193.6262 166.4945 15.17599361  4510
TRANSPORTER-15CG        
1 66744U 25276CG  25362.49039475  .00017111  00000+0  80320-3 0  9994
2 66744  97.3867  73.9447 0024533 219.6291 140.3152 15.19433911  4513
TRANSPORTER-15CH        
1 66745U 25276CH  25362.43255146  .00003825  00000+0  19454-3 0  9991
2 66745  97.4405  73.9210 0001539 180.3522 179.7711 15.17431136  4504
TRANSPORTER-15CJ        
1 66746U 25276CJ  25362.49197471  .00025174  00000+0  11809-2 0  9990
2 66746  97.3833  74.0033 0013620 185.3450 174.7641 15.19563792  4517
W-SERIES 5              
1 66747U 25276CK  25362.49608922  .00007669  00000+0  38481-3 0  9994
2 66747  97.4406  73.9907 0001917 183.3965 176.7256 15.17591390  4515
TRANSPORTER-15CL        
1 66748U 25276CL  25362.41760529  .00027013  00000+0  12997-2 0  9997
2 66748  97.4403  73.9401 0002265 199.5635 160.5513 15.18750583  4500
