CCSDS_OMM_VERS = 2.0
CREATION_DATE  = 
ORIGINATOR     = 

OBJECT_NAME    = FLOCK 4H-34
OBJECT_ID      = 2025-276BZ
CENTER_NAME    = EARTH
REF_FRAME      = TEME
TIME_SYSTEM    = UTC
MEAN_ELEMENT_THEORY = SGP/SGP4

EPOCH          = 2025-12-28T11:38:34.497600
MEAN_MOTION    = 15.18233271
ECCENTRICITY   = .0002942
INCLINATION    = 97.4434
RA_OF_ASC_NODE = 74.0188
ARG_OF_PERICENTER = 153.1831
MEAN_ANOMALY   = 206.9555

EPHEMERIS_TYPE = 0
CLASSIFICATION_TYPE = U
NORAD_CAT_ID   = 66737
ELEMENT_SET_NO = 999
REV_AT_EPOCH   = 376
BSTAR          = .72919E-3
MEAN_MOTION_DOT = .14878E-3
MEAN_MOTION_DDOT = 0

CCSDS_OMM_VERS = 2.0
CREATION_DATE  = 
ORIGINATOR     = 

OBJECT_NAME    = FLOCK 4H-35
OBJECT_ID      = 2025-276CA
CENTER_NAME    = EARTH
REF_FRAME      = TEME
TIME_SYSTEM    = UTC
MEAN_ELEMENT_THEORY = SGP/SGP4

EPOCH          = 2025-12-28T05:16:06.589344
MEAN_MOTION    = 15.18322186
ECCENTRICITY   = .0002728
INCLINATION    = 97.4398
RA_OF_ASC_NODE = 73.7465
ARG_OF_PERICENTER = 137.9275
MEAN_ANOMALY   = 222.2169

EPHEMERIS_TYPE = 0
CLASSIFICATION_TYPE = U
NORAD_CAT_ID   = 66738
ELEMENT_SET_NO = 999
REV_AT_EPOCH   = 376
BSTAR          = .70907E-3
MEAN_MOTION_DOT = .14502E-3
MEAN_MOTION_DDOT = 0

CCSDS_OMM_VERS = 2.0
CREATION_DATE  = 
ORIGINATOR     = 

OBJECT_NAME    = FLOCK 4H-36
OBJECT_ID      = 2025-276CB
CENTER_NAME    = EARTH
REF_FRAME      = TEME
TIME_SYSTEM    = UTC
MEAN_ELEMENT_THEORY = SGP/SGP4

EPOCH          = 2025-12-28T10:07:57.260928
MEAN_MOTION    = 15.18076042
ECCENTRICITY   = .00028
INCLINATION    = 97.4444
RA_OF_ASC_NODE = 73.9542
ARG_OF_PERICENTER = 167.3794
MEAN_ANOMALY   = 192.7511

EPHEMERIS_TYPE = 0
CLASSIFICATION_TYPE = U
NORAD_CAT_ID   = 66739
ELEMENT_SET_NO = 999
REV_AT_EPOCH   = 450
BSTAR          = .67576E-3
MEAN_MOTION_DOT = .13719E-3
MEAN_MOTION_DDOT = 0

CCSDS_OMM_VERS = 2.0
CREATION_DATE  = 
ORIGINATOR     = 

OBJECT_NAME    = TRANSPORTER-15CC
OBJECT_ID      = 2025-276CC
CENTER_NAME    = EARTH
REF_FRAME      = TEME
TIME_SYSTEM    = UTC
MEAN_ELEMENT_THEORY = SGP/SGP4

EPOCH          = 2025-12-28T11:51:12.444192
MEAN_MOTION    = 15.17809427
ECCENTRICITY   = .0002487
INCLINATION    = 97.4405
RA_OF_ASC_NODE = 73.9998
ARG_OF_PERICENTER = 210.7719
MEAN_ANOMALY   = 149.3370

EPHEMERIS_TYPE = 0
CLASSIFICATION_TYPE = U
NORAD_CAT_ID   = 66740
ELEMENT_SET_NO = 999
REV_AT_EPOCH   = 451
BSTAR          = .7445E-3
MEAN_MOTION_DOT = .15008E-3
MEAN_MOTION_DDOT = 0

CCSDS_OMM_VERS = 2.0
CREATION_DATE  = 
ORIGINATOR     = 

OBJECT_NAME    = TRANSPORTER-15CD
OBJECT_ID      = 2025-276CD
CENTER_NAME    = EARTH
REF_FRAME      = TEME
TIME_SYSTEM    = UTC
MEAN_ELEMENT_THEORY = SGP/SGP4

EPOCH          = 2025-12-28T10:18:13.870080
MEAN_MOTION    = 15.17681228
ECCENTRICITY   = .0001403
INCLINATION    = 97.4403
RA_OF_ASC_NODE = 73.9245
ARG_OF_PERICENTER = 199.1395
MEAN_ANOMALY   = 160.9786

EPHEMERIS_TYPE = 0
CLASSIFICATION_TYPE = U
NORAD_CAT_ID   = 66741
ELEMENT_SET_NO = 999
REV_AT_EPOCH   = 450
BSTAR          = .38796E-3
MEAN_MOTION_DOT = .7752E-4
MEAN_MOTION_DDOT = 0

CCSDS_OMM_VERS = 2.0
CREATION_DATE  = 
ORIGINATOR     = 

OBJECT_NAME    = TRANSPORTER-15CE
OBJECT_ID      = 2025-276CE
CENTER_NAME    = EARTH
REF_FRAME      = TEME
TIME_SYSTEM    = UTC
MEAN_ELEMENT_THEORY = SGP/SGP4

EPOCH          = 2025-12-28T10:15:35.554176
MEAN_MOTION    = 15.17767541
ECCENTRICITY   = .0002156
INCLINATION    = 97.4397
RA_OF_ASC_NODE = 73.9243
ARG_OF_PERICENTER = 171.9656
MEAN_ANOMALY   = 188.1613

EPHEMERIS_TYPE = 0
CLASSIFICATION_TYPE = U
NORAD_CAT_ID   = 66742
ELEMENT_SET_NO = 999
REV_AT_EPOCH   = 450
BSTAR          = .47305E-3
MEAN_MOTION_DOT = .9493E-4
MEAN_MOTION_DDOT = 0

CCSDS_OMM_VERS = 2.0
CREATION_DATE  = 
ORIGINATOR     = 

OBJECT_NAME    = TRANSPORTER-15CF
OBJECT_ID      = 2025-276CF
CENTER_NAME    = EARTH
REF_FRAME      = TEME
TIME_SYSTEM    = UTC
MEAN_ELEMENT_THEORY = SGP/SGP4

EPOCH          = 2025-12-28T11:56:36.566016
MEAN_MOTION    = 15.17599361
ECCENTRICITY   = .0001017
INCLINATION    = 97.4398
RA_OF_ASC_NODE = 73.9832
ARG_OF_PERICENTER = 193.6262
MEAN_ANOMALY   = 166.4945

EPHEMERIS_TYPE = 0
CLASSIFICATION_TYPE = U
NORAD_CAT_ID   = 66743
ELEMENT_SET_NO = 999
REV_AT_EPOCH   = 451
BSTAR          = .48015E-3
MEAN_MOTION_DOT = .959E-4
MEAN_MOTION_DDOT = 0

CCSDS_OMM_VERS = 2.0
CREATION_DATE  = 
ORIGINATOR     = 

OBJECT_NAME    = TRANSPORTER-15CG
OBJECT_ID      = 2025-276CG
CENTER_NAME    = EARTH
REF_FRAME      = TEME
TIME_SYSTEM    = UTC
MEAN_ELEMENT_THEORY = SGP/SGP4

EPOCH          = 2025-12-28T11:46:10.106400
MEAN_MOTION    = 15.19433911
ECCENTRICITY   = .0024533
INCLINATION    = 97.3867
RA_OF_ASC_NODE = 73.9447
ARG_OF_PERICENTER = 219.6291
MEAN_ANOMALY   = 140.3152

EPHEMERIS_TYPE = 0
CLASSIFICATION_TYPE = U
NORAD_CAT_ID   = 66744
ELEMENT_SET_NO = 999
REV_AT_EPOCH   = 451
BSTAR          = .8032E-3
MEAN_MOTION_DOT = .17111E-3
MEAN_MOTION_DDOT = 0

CCSDS_OMM_VERS = 2.0
CREATION_DATE  = 
ORIGINATOR     = 

OBJECT_NAME    = TRANSPORTER-15CH
OBJECT_ID      = 2025-276CH
CENTER_NAME    = EARTH
REF_FRAME      = TEME
TIME_SYSTEM    = UTC
MEAN_ELEMENT_THEORY = SGP/SGP4

EPOCH          = 2025-12-28T10:22:52.446144
MEAN_MOTION    = 15.17431136
ECCENTRICITY   = .0001539
INCLINATION    = 97.4405
RA_OF_ASC_NODE = 73.9210
ARG_OF_PERICENTER = 180.3522
MEAN_ANOMALY   = 179.7711

EPHEMERIS_TYPE = 0
CLASSIFICATION_TYPE = U
NORAD_CAT_ID   = 66745
ELEMENT_SET_NO = 999
REV_AT_EPOCH   = 450
BSTAR          = .19454E-3
MEAN_MOTION_DOT = .3825E-4
MEAN_MOTION_DDOT = 0

CCSDS_OMM_VERS = 2.0
CREATION_DATE  = 
ORIGINATOR     = 

OBJECT_NAME    = TRANSPORTER-15CJ
OBJECT_ID      = 2025-276CJ
CENTER_NAME    = EARTH
REF_FRAME      = TEME
TIME_SYSTEM    = UTC
MEAN_ELEMENT_THEORY = SGP/SGP4

EPOCH          = 2025-12-28T11:48:26.614944
MEAN_MOTION    = 15.19563792
ECCENTRICITY   = .001362
INCLINATION    = 97.3833
RA_OF_ASC_NODE = 74.0033
ARG_OF_PERICENTER = 185.3450
MEAN_ANOMALY   = 174.7641

EPHEMERIS_TYPE = 0
CLASSIFICATION_TYPE = U
NORAD_CAT_ID   = 66746
ELEMENT_SET_NO = 999
REV_AT_EPOCH   = 451
BSTAR          = .11809E-2
MEAN_MOTION_DOT = .25174E-3
MEAN_MOTION_DDOT = 0

CCSDS_OMM_VERS = 2.0
CREATION_DATE  = 
ORIGINATOR     = 

OBJECT_NAME    = W-SERIES 5
OBJECT_ID      = 2025-276CK
CENTER_NAME    = EARTH
REF_FRAME      = TEME
TIME_SYSTEM    = UTC
MEAN_ELEMENT_THEORY = SGP/SGP4

EPOCH          = 2025-12-28T11:54:22.108608
MEAN_MOTION    = 15.17591390
ECCENTRICITY   = .0001917
INCLINATION    = 97.4406
RA_OF_ASC_NODE = 73.9907
ARG_OF_PERICENTER = 183.3965
MEAN_ANOMALY   = 176.7256

EPHEMERIS_TYPE = 0
CLASSIFICATION_TYPE = U
NORAD_CAT_ID   = 66747
ELEMENT_SET_NO = 999
REV_AT_EPOCH   = 451
BSTAR          = .38481E-3
MEAN_MOTION_DOT = .7669E-4
MEAN_MOTION_DDOT = 0

CCSDS_OMM_VERS = 2.0
CREATION_DATE  = 
ORIGINATOR     = 

OBJECT_NAME    = TRANSPORTER-15CL
OBJECT_ID      = 2025-276CL
CENTER_NAME    = EARTH
REF_FRAME      = TEME
TIME_SYSTEM    = UTC
MEAN_ELEMENT_THEORY = SGP/SGP4

EPOCH          = 2025-12-28T10:01:21.097056
MEAN_MOTION    = 15.18750583
ECCENTRICITY   = .0002265
INCLINATION    = 97.4403
RA_OF_ASC_NODE = 73.9401
ARG_OF_PERICENTER = 199.5635
MEAN_ANOMALY   = 160.5513

EPHEMERIS_TYPE = 0
CLASSIFICATION_TYPE = U
NORAD_CAT_ID   = 66748
ELEMENT_SET_NO = 999
REV_AT_EPOCH   = 450
BSTAR          = .12997E-2
MEAN_MOTION_DOT = .27013E-3
MEAN_MOTION_DDOT = 0

